[{"OBJECT_NAME":"QIANFAN-35","OBJECT_ID":"2024-185S","EPOCH":"2026-03-03T18:27:41.496192","MEAN_MOTION":14.281146,"ECCENTRICITY":0.0007667,"INCLINATION":88.9743,"RA_OF_ASC_NODE":67.3494,"ARG_OF_PERICENTER":37.037,"MEAN_ANOMALY":323.1352,"EPHEMERIS_TYPE":0,"CLASSIFICATION_TYPE":"U","NORAD_CAT_ID":61568,"ELEMENT_SET_NO":999,"REV_AT_EPOCH":8174,"BSTAR":0.00042846,"MEAN_MOTION_DOT":1.079e-5,"MEAN_MOTION_DDOT":0},{"OBJECT_NAME":"QIANFAN-36","OBJECT_ID":"2024-185T","EPOCH":"2026-03-03T18:53:40.930656","MEAN_MOTION":13.55613302,"ECCENTRICITY":0.000685,"INCLINATION":88.9716,"RA_OF_ASC_NODE":72.5865,"ARG_OF_PERICENTER":150.9248,"MEAN_ANOMALY":209.2289,"EPHEMERIS_TYPE":0,"CLASSIFICATION_TYPE":"U","NORAD_CAT_ID":61569,"ELEMENT_SET_NO":999,"REV_AT_EPOCH":7890,"BSTAR":0.00018836,"MEAN_MOTION_DOT":1.43e-6,"MEAN_MOTION_DDOT":0},{"OBJECT_NAME":"QIANFAN-37","OBJECT_ID":"2024-232B","EPOCH":"2026-03-03T17:19:57.469152","MEAN_MOTION":13.51005006,"ECCENTRICITY":0.0001656,"INCLINATION":89.0048,"RA_OF_ASC_NODE":33.1484,"ARG_OF_PERICENTER":96.7134,"MEAN_ANOMALY":263.4205,"EPHEMERIS_TYPE":0,"CLASSIFICATION_TYPE":"U","NORAD_CAT_ID":62238,"ELEMENT_SET_NO":999,"REV_AT_EPOCH":11010,"BSTAR":0.00010385,"MEAN_MOTION_DOT":7.9e-7,"MEAN_MOTION_DDOT":0},{"OBJECT_NAME":"QIANFAN-38","OBJECT_ID":"2024-232C","EPOCH":"2026-03-03T17:55:26.143104","MEAN_MOTION":13.51003588,"ECCENTRICITY":0.0013585,"INCLINATION":89.0054,"RA_OF_ASC_NODE":33.0673,"ARG_OF_PERICENTER":329.0341,"MEAN_ANOMALY":31.0008,"EPHEMERIS_TYPE":0,"CLASSIFICATION_TYPE":"U","NORAD_CAT_ID":62239,"ELEMENT_SET_NO":999,"REV_AT_EPOCH":11016,"BSTAR":8.2359e-5,"MEAN_MOTION_DOT":6.5e-7,"MEAN_MOTION_DDOT":0},{"OBJECT_NAME":"QIANFAN-39","OBJECT_ID":"2024-232D","EPOCH":"2026-03-03T20:31:50.522304","MEAN_MOTION":14.25434699,"ECCENTRICITY":0.0016332,"INCLINATION":89.0053,"RA_OF_ASC_NODE":28.0285,"ARG_OF_PERICENTER":164.6133,"MEAN_ANOMALY":195.556,"EPHEMERIS_TYPE":0,"CLASSIFICATION_TYPE":"U","NORAD_CAT_ID":62240,"ELEMENT_SET_NO":999,"REV_AT_EPOCH":11294,"BSTAR":0.00019886,"MEAN_MOTION_DOT":4.84e-6,"MEAN_MOTION_DDOT":0},{"OBJECT_NAME":"QIANFAN-40","OBJECT_ID":"2024-232E","EPOCH":"2026-03-03T16:56:10.906656","MEAN_MOTION":13.51002824,"ECCENTRICITY":0.0012921,"INCLINATION":89.0083,"RA_OF_ASC_NODE":32.6786,"ARG_OF_PERICENTER":338.1874,"MEAN_ANOMALY":21.8726,"EPHEMERIS_TYPE":0,"CLASSIFICATION_TYPE":"U","NORAD_CAT_ID":62241,"ELEMENT_SET_NO":999,"REV_AT_EPOCH":11052,"BSTAR":0.00010536,"MEAN_MOTION_DOT":8.0e-7,"MEAN_MOTION_DDOT":0},{"OBJECT_NAME":"QIANFAN-41","OBJECT_ID":"2024-232F","EPOCH":"2026-03-03T18:54:44.762976","MEAN_MOTION":13.51004486,"ECCENTRICITY":0.0012871,"INCLINATION":89.0052,"RA_OF_ASC_NODE":33.0133,"ARG_OF_PERICENTER":325.0447,"MEAN_ANOMALY":34.9858,"EPHEMERIS_TYPE":0,"CLASSIFICATION_TYPE":"U","NORAD_CAT_ID":62242,"ELEMENT_SET_NO":999,"REV_AT_EPOCH":11019,"BSTAR":0.0001107,"MEAN_MOTION_DOT":8.3e-7,"MEAN_MOTION_DDOT":0},{"OBJECT_NAME":"QIANFAN-42","OBJECT_ID":"2024-232G","EPOCH":"2026-03-03T14:58:41.750112","MEAN_MOTION":14.2452841,"ECCENTRICITY":0.0014923,"INCLINATION":89.0051,"RA_OF_ASC_NODE":28.1141,"ARG_OF_PERICENTER":170.8411,"MEAN_ANOMALY":189.3057,"EPHEMERIS_TYPE":0,"CLASSIFICATION_TYPE":"U","NORAD_CAT_ID":62243,"ELEMENT_SET_NO":999,"REV_AT_EPOCH":11288,"BSTAR":0.00018272,"MEAN_MOTION_DOT":4.38e-6,"MEAN_MOTION_DDOT":0},{"OBJECT_NAME":"QIANFAN-43","OBJECT_ID":"2024-232H","EPOCH":"2026-03-03T17:02:06.645696","MEAN_MOTION":13.51004479,"ECCENTRICITY":0.0014567,"INCLINATION":89.0057,"RA_OF_ASC_NODE":33.0901,"ARG_OF_PERICENTER":330.0364,"MEAN_ANOMALY":29.9952,"EPHEMERIS_TYPE":0,"CLASSIFICATION_TYPE":"U","NORAD_CAT_ID":62244,"ELEMENT_SET_NO":999,"REV_AT_EPOCH":7879,"BSTAR":8.5897e-5,"MEAN_MOTION_DOT":6.7e-7,"MEAN_MOTION_DDOT":0},{"OBJECT_NAME":"QIANFAN-44","OBJECT_ID":"2024-232J","EPOCH":"2026-03-03T20:17:38.736672","MEAN_MOTION":13.51002495,"ECCENTRICITY":0.001269,"INCLINATION":89.0056,"RA_OF_ASC_NODE":32.8858,"ARG_OF_PERICENTER":327.4718,"MEAN_ANOMALY":32.565,"EPHEMERIS_TYPE":0,"CLASSIFICATION_TYPE":"U","NORAD_CAT_ID":62245,"ELEMENT_SET_NO":999,"REV_AT_EPOCH":11028,"BSTAR":9.1933e-5,"MEAN_MOTION_DOT":7.1e-7,"MEAN_MOTION_DDOT":0},{"OBJECT_NAME":"QIANFAN-45","OBJECT_ID":"2024-232K","EPOCH":"2026-03-03T17:43:37.829856","MEAN_MOTION":13.51000157,"ECCENTRICITY":0.0013344,"INCLINATION":89.0059,"RA_OF_ASC_NODE":33.0459,"ARG_OF_PERICENTER":327.0087,"MEAN_ANOMALY":33.023,"EPHEMERIS_TYPE":0,"CLASSIFICATION_TYPE":"U","NORAD_CAT_ID":62246,"ELEMENT_SET_NO":999,"REV_AT_EPOCH":11019,"BSTAR":8.173e-5,"MEAN_MOTION_DOT":6.5e-7,"MEAN_MOTION_DDOT":0},{"OBJECT_NAME":"QIANFAN-46","OBJECT_ID":"2024-232L","EPOCH":"2026-03-03T20:05:46.595040","MEAN_MOTION":13.51003063,"ECCENTRICITY":0.0013568,"INCLINATION":89.0055,"RA_OF_ASC_NODE":33.1017,"ARG_OF_PERICENTER":332.5492,"MEAN_ANOMALY":27.4941,"EPHEMERIS_TYPE":0,"CLASSIFICATION_TYPE":"U","NORAD_CAT_ID":62247,"ELEMENT_SET_NO":999,"REV_AT_EPOCH":11016,"BSTAR":9.3957e-5,"MEAN_MOTION_DOT":7.3e-7,"MEAN_MOTION_DDOT":0},{"OBJECT_NAME":"QIANFAN-47","OBJECT_ID":"2024-232M","EPOCH":"2026-03-03T20:11:41.834688","MEAN_MOTION":13.51003024,"ECCENTRICITY":0.0013975,"INCLINATION":89.0051,"RA_OF_ASC_NODE":33.031,"ARG_OF_PERICENTER":331.3679,"MEAN_ANOMALY":28.6703,"EPHEMERIS_TYPE":0,"CLASSIFICATION_TYPE":"U","NORAD_CAT_ID":62248,"ELEMENT_SET_NO":999,"REV_AT_EPOCH":11019,"BSTAR":9.8472e-5,"MEAN_MOTION_DOT":7.5e-7,"MEAN_MOTION_DDOT":0},{"OBJECT_NAME":"QIANFAN-48","OBJECT_ID":"2024-232N","EPOCH":"2026-03-03T19:18:23.069088","MEAN_MOTION":13.5100315,"ECCENTRICITY":0.0016306,"INCLINATION":89.0055,"RA_OF_ASC_NODE":33.0398,"ARG_OF_PERICENTER":333.1947,"MEAN_ANOMALY":26.836,"EPHEMERIS_TYPE":0,"CLASSIFICATION_TYPE":"U","NORAD_CAT_ID":62249,"ELEMENT_SET_NO":999,"REV_AT_EPOCH":11019,"BSTAR":8.9563e-5,"MEAN_MOTION_DOT":7.0e-7,"MEAN_MOTION_DDOT":0},{"OBJECT_NAME":"QIANFAN-49","OBJECT_ID":"2024-232P","EPOCH":"2026-03-03T17:13:57.711648","MEAN_MOTION":13.5100224,"ECCENTRICITY":0.0013224,"INCLINATION":89.0054,"RA_OF_ASC_NODE":33.0604,"ARG_OF_PERICENTER":329.1741,"MEAN_ANOMALY":30.8632,"EPHEMERIS_TYPE":0,"CLASSIFICATION_TYPE":"U","NORAD_CAT_ID":62250,"ELEMENT_SET_NO":999,"REV_AT_EPOCH":7877,"BSTAR":9.5386e-5,"MEAN_MOTION_DOT":7.3e-7,"MEAN_MOTION_DDOT":0},{"OBJECT_NAME":"QIANFAN-50","OBJECT_ID":"2024-232Q","EPOCH":"2026-03-03T17:49:29.788896","MEAN_MOTION":13.51003192,"ECCENTRICITY":0.0014911,"INCLINATION":89.0059,"RA_OF_ASC_NODE":33.0704,"ARG_OF_PERICENTER":329.6659,"MEAN_ANOMALY":30.3628,"EPHEMERIS_TYPE":0,"CLASSIFICATION_TYPE":"U","NORAD_CAT_ID":62251,"ELEMENT_SET_NO":999,"REV_AT_EPOCH":7880,"BSTAR":7.4558e-5,"MEAN_MOTION_DOT":6.0e-7,"MEAN_MOTION_DDOT":0},{"OBJECT_NAME":"QIANFAN-51","OBJECT_ID":"2024-232R","EPOCH":"2026-03-03T17:25:50.630880","MEAN_MOTION":13.51003999,"ECCENTRICITY":0.0012553,"INCLINATION":89.0053,"RA_OF_ASC_NODE":33.061,"ARG_OF_PERICENTER":335.0181,"MEAN_ANOMALY":25.0361,"EPHEMERIS_TYPE":0,"CLASSIFICATION_TYPE":"U","NORAD_CAT_ID":62252,"ELEMENT_SET_NO":999,"REV_AT_EPOCH":7879,"BSTAR":8.9758e-5,"MEAN_MOTION_DOT":7.0e-7,"MEAN_MOTION_DDOT":0}]
