QIANFAN-35              
1 61568U 24185S   26062.76923028  .00001079  00000+0  42846-3 0  9992
2 61568  88.9743  67.3494 0007667  37.0370 323.1352 14.28114600 81742
QIANFAN-36              
1 61569U 24185T   26062.78727929  .00000143  00000+0  18836-3 0  9990
2 61569  88.9716  72.5865 0006850 150.9248 209.2289 13.55613302 78904
QIANFAN-37              
1 62238U 24232B   26062.72219293  .00000079  00000+0  10385-3 0  9990
2 62238  89.0048  33.1484 0001656  96.7134 263.4205 13.51005006110109
QIANFAN-38              
1 62239U 24232C   26062.74683036  .00000065  00000+0  82359-4 0  9999
2 62239  89.0054  33.0673 0013585 329.0341  31.0008 13.51003588110161
QIANFAN-39              
1 62240U 24232D   26062.85544586  .00000484  00000+0  19886-3 0  9998
2 62240  89.0053  28.0285 0016332 164.6133 195.5560 14.25434699112940
QIANFAN-40              
1 62241U 24232E   26062.70568179  .00000080  00000+0  10536-3 0  9992
2 62241  89.0083  32.6786 0012921 338.1874  21.8726 13.51002824110527
QIANFAN-41              
1 62242U 24232F   26062.78801809  .00000083  00000+0  11070-3 0  9998
2 62242  89.0052  33.0133 0012871 325.0447  34.9858 13.51004486110190
QIANFAN-42              
1 62243U 24232G   26062.62409433  .00000438  00000+0  18272-3 0  9994
2 62243  89.0051  28.1141 0014923 170.8411 189.3057 14.24528410112884
QIANFAN-43              
1 62244U 24232H   26062.70979914  .00000067  00000+0  85897-4 0  9996
2 62244  89.0057  33.0901 0014567 330.0364  29.9952 13.51004479 78798
QIANFAN-44              
1 62245U 24232J   26062.84558723  .00000071  00000+0  91933-4 0  9996
2 62245  89.0056  32.8858 0012690 327.4718  32.5650 13.51002495110286
QIANFAN-45              
1 62246U 24232K   26062.73863229  .00000065  00000+0  81730-4 0  9992
2 62246  89.0059  33.0459 0013344 327.0087  33.0230 13.51000157110195
QIANFAN-46              
1 62247U 24232L   26062.83734485  .00000073  00000+0  93957-4 0  9998
2 62247  89.0055  33.1017 0013568 332.5492  27.4941 13.51003063110164
QIANFAN-47              
1 62248U 24232M   26062.84145642  .00000075  00000+0  98472-4 0  9990
2 62248  89.0051  33.0310 0013975 331.3679  28.6703 13.51003024110191
QIANFAN-48              
1 62249U 24232N   26062.80443367  .00000070  00000+0  89563-4 0  9998
2 62249  89.0055  33.0398 0016306 333.1947  26.8360 13.51003150110190
QIANFAN-49              
1 62250U 24232P   26062.71802907  .00000073  00000+0  95386-4 0  9992
2 62250  89.0054  33.0604 0013224 329.1741  30.8632 13.51002240 78777
QIANFAN-50              
1 62251U 24232Q   26062.74270589  .00000060  00000+0  74558-4 0  9995
2 62251  89.0059  33.0704 0014911 329.6659  30.3628 13.51003192 78802
QIANFAN-51              
1 62252U 24232R   26062.72628045  .00000070  00000+0  89758-4 0  9997
2 62252  89.0053  33.0610 0012553 335.0181  25.0361 13.51003999 78792
